{
"type": "FeatureCollection",
"crs": { "type": "name", "properties": { "name": "urn:ogc:def:crs:OGC:1.3:CRS84" } },
"features": [
{ "type": "Feature", "properties": { "bbox_north": 29.103437, "bbox_south": 28.7594344, "bbox_east": -109.9169842, "bbox_west": -110.4332738, "place_id": 294039549, "osm_type": "relation", "osm_id": 5606019, "lat": 28.9312038, "lon": -110.3560874, "class": "boundary", "type": "administrative", "place_rank": 12, "importance": 0.3718087181014888, "addresstype": "county", "name": "Mazatán", "display_name": "Mazatán, Sonora, Mexico" }, "geometry": { "type": "Polygon", "coordinates": [ [ [ -110.4332738, 28.9485235 ], [ -110.4000806, 28.9048838 ], [ -110.379504, 28.8786614 ], [ -110.3756486, 28.8731026 ], [ -110.3771551, 28.8811781 ], [ -110.3555383, 28.8898626 ], [ -110.3403151, 28.8958592 ], [ -110.3340506, 28.898218 ], [ -110.333819, 28.8983132 ], [ -110.3329116, 28.8988332 ], [ -110.3320904, 28.8991491 ], [ -110.2984876, 28.9120844 ], [ -110.2993494, 28.9265053 ], [ -110.2394269, 28.9652069 ], [ -110.2338818, 28.972177 ], [ -110.2225635, 28.9864006 ], [ -110.2254005, 28.9688109 ], [ -110.2267241, 28.960602 ], [ -110.2057006, 28.9539909 ], [ -110.1989606, 28.9398323 ], [ -110.1898742, 28.9206736 ], [ -110.1853139, 28.9136964 ], [ -110.1852646, 28.913621 ], [ -110.1791446, 28.9042557 ], [ -110.1816392, 28.8973951 ], [ -110.1849225, 28.8856969 ], [ -110.1867274, 28.8749065 ], [ -110.159386, 28.8508613 ], [ -110.1627909, 28.8257874 ], [ -110.163862, 28.823119 ], [ -110.1625909, 28.8153347 ], [ -110.1594811, 28.8136637 ], [ -110.1569273, 28.7918389 ], [ -110.1609143, 28.7757911 ], [ -110.1649767, 28.7594344 ], [ -110.1623466, 28.7599234 ], [ -110.1498577, 28.7648938 ], [ -110.1459423, 28.7633509 ], [ -110.1365505, 28.7656028 ], [ -110.1077568, 28.7725025 ], [ -110.0968247, 28.787585 ], [ -110.1044776, 28.8136821 ], [ -110.0409732, 28.8227086 ], [ -110.002814, 28.8283733 ], [ -110.0000215, 28.8287287 ], [ -109.9999328, 28.82874 ], [ -109.9785885, 28.8318 ], [ -109.9317297, 28.8389685 ], [ -109.9169842, 28.8676356 ], [ -109.9754178, 28.8602347 ], [ -109.9808346, 28.8596244 ], [ -109.9853396, 28.8590571 ], [ -110.0000185, 28.8572044 ], [ -110.0001512, 28.8571877 ], [ -110.0029427, 28.8568151 ], [ -110.0182382, 28.8549391 ], [ -110.0377115, 28.8524134 ], [ -110.1139807, 28.8427293 ], [ -110.113508, 28.8496371 ], [ -110.1155476, 28.8548414 ], [ -110.1163302, 28.8575325 ], [ -110.115967, 28.8611517 ], [ -110.1173188, 28.8637388 ], [ -110.1201556, 28.8725603 ], [ -110.1199199, 28.8748821 ], [ -110.1186817, 28.8785578 ], [ -110.120042, 28.8798172 ], [ -110.1195493, 28.8805718 ], [ -110.1149021, 28.8876891 ], [ -110.1182754, 28.8891116 ], [ -110.1189022, 28.8893759 ], [ -110.120081, 28.8905191 ], [ -110.1203843, 28.8909473 ], [ -110.1208429, 28.8918385 ], [ -110.1208313, 28.8924815 ], [ -110.1207907, 28.8947195 ], [ -110.1220844, 28.8958987 ], [ -110.1212904, 28.9052418 ], [ -110.1195802, 28.9253581 ], [ -110.0986987, 28.9304745 ], [ -110.1019012, 28.901558 ], [ -110.1010912, 28.9018188 ], [ -110.0987985, 28.9025824 ], [ -110.0980253, 28.9028319 ], [ -110.0825725, 28.9077495 ], [ -110.0704412, 28.9103553 ], [ -110.0717872, 28.9227025 ], [ -110.0721447, 28.926044 ], [ -110.0727558, 28.931933 ], [ -110.0729954, 28.934137 ], [ -110.0731866, 28.9358835 ], [ -110.0739343, 28.9385281 ], [ -110.0749985, 28.9420931 ], [ -110.0753053, 28.9431238 ], [ -110.0777374, 28.9513099 ], [ -110.0787094, 28.954701 ], [ -110.0789436, 28.9554987 ], [ -110.0768293, 28.9592587 ], [ -110.0673566, 28.9760616 ], [ -110.0636407, 28.9815222 ], [ -110.05896, 28.9870287 ], [ -110.0547977, 28.9919114 ], [ -110.0533953, 28.9935563 ], [ -110.0501316, 28.9925923 ], [ -110.048532, 28.9951976 ], [ -110.0456588, 29.0000726 ], [ -110.0443207, 29.0023199 ], [ -110.0379648, 29.0130054 ], [ -110.0639251, 29.0245647 ], [ -110.0927749, 29.0450535 ], [ -110.0928323, 29.0450942 ], [ -110.102259, 29.0517859 ], [ -110.1027537, 29.0528982 ], [ -110.1066667, 29.0543677 ], [ -110.1037438, 29.0622339 ], [ -110.1158462, 29.0651336 ], [ -110.1153397, 29.0662695 ], [ -110.1300351, 29.0683643 ], [ -110.161663, 29.0760275 ], [ -110.1618966, 29.0683436 ], [ -110.2023276, 29.0800142 ], [ -110.2082483, 29.0767393 ], [ -110.2076902, 29.0550923 ], [ -110.2072809, 29.0392145 ], [ -110.2106719, 29.0395303 ], [ -110.2113792, 29.0261446 ], [ -110.2238692, 29.0273537 ], [ -110.2491553, 29.0693628 ], [ -110.2484788, 29.0721317 ], [ -110.317217, 29.103437 ], [ -110.343478, 29.0864358 ], [ -110.3475035, 29.0838372 ], [ -110.3708913, 29.0683547 ], [ -110.3795367, 29.0627579 ], [ -110.3875648, 29.044016 ], [ -110.3934962, 29.02883 ], [ -110.3947116, 29.0257665 ], [ -110.3959043, 29.0230352 ], [ -110.3935722, 29.0231756 ], [ -110.385452, 29.0001225 ], [ -110.3821326, 28.9905433 ], [ -110.3751152, 28.9706756 ], [ -110.4323744, 28.9512065 ], [ -110.4330433, 28.9492757 ], [ -110.4332738, 28.9485235 ] ] ] } },
{ "type": "Feature", "properties": { "bbox_north": 29.4834269, "bbox_south": 28.7972314, "bbox_east": -109.7911167, "bbox_west": -110.1300351, "place_id": 292280569, "osm_type": "relation", "osm_id": 5606608, "lat": 29.1369188, "lon": -109.991392, "class": "boundary", "type": "administrative", "place_rank": 12, "importance": 0.38067264276026613, "addresstype": "county", "name": "Villa Pesqueira", "display_name": "Villa Pesqueira, Sonora, Mexico" }, "geometry": { "type": "Polygon", "coordinates": [ [ [ -110.1300351, 29.0683643 ], [ -110.1153397, 29.0662695 ], [ -110.1158462, 29.0651336 ], [ -110.1037438, 29.0622339 ], [ -110.1066667, 29.0543677 ], [ -110.1027537, 29.0528982 ], [ -110.102259, 29.0517859 ], [ -110.0928323, 29.0450942 ], [ -110.0927749, 29.0450535 ], [ -110.0639251, 29.0245647 ], [ -110.0379648, 29.0130054 ], [ -110.0443207, 29.0023199 ], [ -110.0456588, 29.0000726 ], [ -110.048532, 28.9951976 ], [ -110.0501316, 28.9925923 ], [ -110.0533953, 28.9935563 ], [ -110.0547977, 28.9919114 ], [ -110.05896, 28.9870287 ], [ -110.0636407, 28.9815222 ], [ -110.0673566, 28.9760616 ], [ -110.0768293, 28.9592587 ], [ -110.0789436, 28.9554987 ], [ -110.0787094, 28.954701 ], [ -110.0777374, 28.9513099 ], [ -110.0753053, 28.9431238 ], [ -110.0749985, 28.9420931 ], [ -110.0739343, 28.9385281 ], [ -110.0731866, 28.9358835 ], [ -110.0729954, 28.934137 ], [ -110.0727558, 28.931933 ], [ -110.0721447, 28.926044 ], [ -110.0717872, 28.9227025 ], [ -110.0704412, 28.9103553 ], [ -110.0825725, 28.9077495 ], [ -110.0980253, 28.9028319 ], [ -110.0987985, 28.9025824 ], [ -110.1010912, 28.9018188 ], [ -110.1019012, 28.901558 ], [ -110.0986987, 28.9304745 ], [ -110.1195802, 28.9253581 ], [ -110.1212904, 28.9052418 ], [ -110.1220844, 28.8958987 ], [ -110.1207907, 28.8947195 ], [ -110.1208313, 28.8924815 ], [ -110.1208429, 28.8918385 ], [ -110.1203843, 28.8909473 ], [ -110.120081, 28.8905191 ], [ -110.1189022, 28.8893759 ], [ -110.1182754, 28.8891116 ], [ -110.1149021, 28.8876891 ], [ -110.1195493, 28.8805718 ], [ -110.120042, 28.8798172 ], [ -110.1186817, 28.8785578 ], [ -110.1199199, 28.8748821 ], [ -110.1201556, 28.8725603 ], [ -110.1173188, 28.8637388 ], [ -110.115967, 28.8611517 ], [ -110.1163302, 28.8575325 ], [ -110.1155476, 28.8548414 ], [ -110.113508, 28.8496371 ], [ -110.1139807, 28.8427293 ], [ -110.0377115, 28.8524134 ], [ -110.0182382, 28.8549391 ], [ -110.0029427, 28.8568151 ], [ -110.0001512, 28.8571877 ], [ -110.0000185, 28.8572044 ], [ -109.9853396, 28.8590571 ], [ -109.9808346, 28.8596244 ], [ -109.9754178, 28.8602347 ], [ -109.9169842, 28.8676356 ], [ -109.9160702, 28.8677526 ], [ -109.9154178, 28.8677468 ], [ -109.9149334, 28.8675908 ], [ -109.9146682, 28.8672156 ], [ -109.9142144, 28.8663158 ], [ -109.9134455, 28.8652356 ], [ -109.912457, 28.8643519 ], [ -109.8739822, 28.8438472 ], [ -109.8714583, 28.8411976 ], [ -109.8435332, 28.8118974 ], [ -109.8292881, 28.7972314 ], [ -109.8211195, 28.817694 ], [ -109.7911167, 28.8254802 ], [ -109.7965516, 28.8328393 ], [ -109.7993128, 28.8413973 ], [ -109.8034952, 28.8511338 ], [ -109.8267243, 28.841043 ], [ -109.8420614, 28.8740138 ], [ -109.818046, 28.8843254 ], [ -109.8215141, 28.8892886 ], [ -109.8219974, 28.8899802 ], [ -109.8257474, 28.8940772 ], [ -109.8404784, 28.9101646 ], [ -109.8467637, 28.9316305 ], [ -109.8484714, 28.9492697 ], [ -109.8484648, 28.9522943 ], [ -109.8484613, 28.9538859 ], [ -109.8483797, 28.9909744 ], [ -109.8483603, 28.9997772 ], [ -109.8832546, 29.0207691 ], [ -109.8699799, 29.0389998 ], [ -109.8816429, 29.089681 ], [ -109.8656596, 29.0941302 ], [ -109.8679839, 29.1242299 ], [ -109.86873, 29.1334804 ], [ -109.8588587, 29.1403572 ], [ -109.8604926, 29.1474105 ], [ -109.8620132, 29.1539738 ], [ -109.8721614, 29.152832 ], [ -109.8761112, 29.1798022 ], [ -109.8784071, 29.1943092 ], [ -109.8828259, 29.2252801 ], [ -109.884337, 29.235867 ], [ -109.8850262, 29.2500017 ], [ -109.8884037, 29.2883806 ], [ -109.8914998, 29.3172397 ], [ -109.9166042, 29.343486 ], [ -109.9311405, 29.3569869 ], [ -109.9386746, 29.3646947 ], [ -109.9506397, 29.3683393 ], [ -109.9505069, 29.3662247 ], [ -109.9640019, 29.372461 ], [ -109.9649086, 29.3735956 ], [ -109.9810422, 29.3876726 ], [ -109.9824757, 29.4141362 ], [ -109.9740748, 29.4165887 ], [ -109.9595127, 29.4301855 ], [ -109.9381743, 29.4395924 ], [ -109.9297921, 29.4396742 ], [ -109.9280523, 29.4511743 ], [ -109.941342, 29.4560312 ], [ -109.9446897, 29.46015 ], [ -109.952102, 29.4600193 ], [ -109.9682124, 29.4744531 ], [ -109.9882523, 29.4762073 ], [ -109.9923953, 29.4439326 ], [ -110.0160152, 29.4506836 ], [ -110.0165972, 29.4834269 ], [ -110.035805, 29.4773521 ], [ -110.0343146, 29.4602219 ], [ -110.0264299, 29.45803 ], [ -110.0295411, 29.4492339 ], [ -110.072299, 29.452072 ], [ -110.0841552, 29.4318563 ], [ -110.0847067, 29.417736 ], [ -110.0854101, 29.3997198 ], [ -110.0406607, 29.3960533 ], [ -110.0398665, 29.39333 ], [ -110.0325968, 29.368399 ], [ -110.0324299, 29.3546299 ], [ -110.0322674, 29.3412228 ], [ -110.0170492, 29.3277343 ], [ -110.0031736, 29.3389042 ], [ -110.0025302, 29.3394218 ], [ -110.0000094, 29.3414509 ], [ -109.9781094, 29.3617846 ], [ -109.9780718, 29.3430324 ], [ -109.9780695, 29.3418535 ], [ -109.977964, 29.2890958 ], [ -109.9779125, 29.2634964 ], [ -109.9778855, 29.2500065 ], [ -109.9778292, 29.2403056 ], [ -109.9775446, 29.191345 ], [ -109.9555851, 29.1919943 ], [ -109.9847214, 29.1733584 ], [ -109.9716957, 29.1632395 ], [ -110.0000088, 29.161341 ], [ -110.0036679, 29.1614029 ], [ -110.0309196, 29.1618725 ], [ -110.0458309, 29.162109 ], [ -110.0520108, 29.158681 ], [ -110.0525993, 29.1586229 ], [ -110.0538142, 29.1578892 ], [ -110.0541852, 29.1539323 ], [ -110.0628988, 29.1535296 ], [ -110.062211, 29.150093 ], [ -110.0761268, 29.1441933 ], [ -110.08492, 29.1484522 ], [ -110.0906219, 29.1461894 ], [ -110.0883632, 29.1528154 ], [ -110.0921714, 29.1533024 ], [ -110.0970931, 29.1539451 ], [ -110.0975897, 29.1539818 ], [ -110.0977058, 29.1539977 ], [ -110.1000111, 29.1543144 ], [ -110.1013805, 29.1544243 ], [ -110.111483, 29.155786 ], [ -110.1151788, 29.156708 ], [ -110.1165039, 29.1491742 ], [ -110.1172533, 29.1451329 ], [ -110.1184901, 29.1414374 ], [ -110.1196435, 29.131003 ], [ -110.1241444, 29.1047982 ], [ -110.124755, 29.1008615 ], [ -110.1284486, 29.0770443 ], [ -110.1300351, 29.0683643 ] ] ] } }
]
}
